{"id_localidade :": "SBBE", "data: ": "202107100300", "mens: ": "SBBE 100300Z 13004KT CAVOK 25/23 Q1014"}