{"id_localidade :": "SBBE", "data: ": "202107101500", "mens: ": "SBBE 101500Z 09008KT 050V180 9999 SCT030 31/23 Q1013"}