{"id_localidade :": "SBBE", "data: ": "202107100900", "mens: ": "SBBE 100900Z 13004KT CAVOK 24/23 Q1012"}