{"id_localidade :": "SBCF", "data: ": "202107101500", "mens: ": "SBCF 101500Z VRB03KT CAVOK 22/09 Q1023"}