{"id_localidade :": "SBCF", "data: ": "202107100900", "mens: ": "SBCF 100900Z 14003KT CAVOK 11/08 Q1023"}