{"id_localidade :": "SBCF", "data: ": "202107100200", "mens: ": "SBCF 100200Z 08005KT CAVOK 16/08 Q1023"}