{"id_localidade :": "SBCF", "data: ": "202107100400", "mens: ": "SBCF 100400Z 13004KT CAVOK 14/07 Q1023"}