{"id_localidade :": "SBCT", "data: ": "202107100400", "mens: ": "SBCT 100400Z 03003KT 0600 R15/0600 R33/0600 FG OVC002 09/09 Q1023"}