{"id_localidade :": "SBCT", "data: ": "202107100300", "mens: ": "SBCT 100300Z 05003KT 0500 R15/0500 R33/0500 FG OVC001 09/09 Q1023"}