{"id_localidade :": "SBCT", "data: ": "202107100900", "mens: ": "SBCT 100900Z 04004KT 9999 OVC009 12/10 Q1022"}