{"id_localidade :": "SBCT", "data: ": "202107101500", "mens: ": "SBCT 101500Z 35005KT 310V040 9000 NSC 19/11 Q1024"}