{"id_localidade :": "SBEG", "data: ": "202107101500", "mens: ": "SBEG 101500Z 08009KT 040V100 9999 SCT025 31/24 Q1013"}