{"id_localidade :": "SBEG", "data: ": "202107100900", "mens: ": "SBEG 100900Z 00000KT CAVOK 23/22 Q1011"}