{"id_localidade :": "SBEG", "data: ": "202107100400", "mens: ": "SBEG 100400Z 30002KT CAVOK 24/23 Q1013"}{"id_localidade :": "SBEG", "data: ": "202107100400", "mens: ": "SBEG 100400Z 30002KT CAVOK 24/23 Q1013"}