{"id_localidade :": "SBFZ", "data: ": "202107100900", "mens: ": "SBFZ 100900Z 17005KT 9999 SCT023 25/22 Q1013"}