{"id_localidade :": "SBFZ", "data: ": "202107100400", "mens: ": "SBFZ 100400Z 10008KT 9999 SCT020 BKN100 27/23 Q1014"}