{"id_localidade :": "SBFZ", "data: ": "202107101500", "mens: ": "SBFZ 101500Z 11017KT 9999 SCT030 29/22 Q1014"}