{"id_localidade :": "SBGL", "data: ": "202107100400", "mens: ": "SBGL 100400Z 10003KT CAVOK 18/16 Q1021"}