{"id_localidade :": "SBGL", "data: ": "202107101500", "mens: ": "SBGL 101500Z 01007KT 9999 FEW025 24/15 Q1021"}