{"id_localidade :": "SBGL", "data: ": "202107100910", "mens: ": "SBGL 100910Z 35002KT 3000 BR BKN015 17/17 Q1021"}