{"id_localidade :": "SBGR", "data: ": "202107100904", "mens: ": "SBGR 100904Z 07013KT 0800 R09R/P2000 R09L/P2000 R27R/P2000 R27L/P2000 FG BKN002 11/11 Q1022"}