{"id_localidade :": "SBGR", "data: ": "202107100300", "mens: ": "SBGR 100300Z 08001KT 5000 BR NSC 11/11 Q1023"}