{"id_localidade :": "SBGR", "data: ": "202107100400", "mens: ": "SBGR 100400Z 00000KT 9000 NSC 11/10 Q1023"}