{"id_localidade :": "SBGR", "data: ": "202107101500", "mens: ": "SBGR 101500Z 07005KT CAVOK 19/12 Q1024"}