{"id_localidade :": "SBPA", "data: ": "202107100300", "mens: ": "SBPA 100300Z 07002KT 5000 BR NSC 13/13 Q1019"}