{"id_localidade :": "SBPA", "data: ": "202107100900", "mens: ": "SBPA 100900Z VRB02KT 4000 BR NSC 11/11 Q1017"}