{"id_localidade :": "SBPA", "data: ": "202107101500", "mens: ": "SBPA 101500Z 30010KT 270V340 CAVOK 22/13 Q1018"}