{"id_localidade :": "SBPA", "data: ": "202107100400", "mens: ": "SBPA 100400Z 08003KT 5000 BR BCFG NSC 13/13 Q1017"}