{"id_localidade :": "SBRF", "data: ": "202107101500", "mens: ": "SBRF 101500Z 13009KT 9999 SCT018 FEW020TCU SCT050 27/21 Q1015"}