{"id_localidade :": "SBRF", "data: ": "202107100400", "mens: ": "SBRF 100400Z 22004KT 8000 VCSH SCT015 BKN090 23/21 Q1015"}{"id_localidade :": "SBRF", "data: ": "202107100400", "mens: ": "SBRF 100400Z 22004KT 8000 VCSH SCT015 BKN090 23/21 Q1015"}