{"id_localidade :": "SBRF", "data: ": "202107100900", "mens: ": "SBRF 100900Z 21002KT 8000 VCSH BKN020 22/20 Q1015"}